[
    {
        "Altitude(m)": 717571.6289571185,
        "Argument of Periapsis(deg)": 0.0011390121186627068,
        "Eccentricity": 0.0,
        "Inclination(deg)": 45.0,
        "Latitude(deg)": -44.402761677633706,
        "Longitude(deg)": 88.01450516508895,
        "Mean Anomaly(deg)": -80.66487833525183,
        "RAAN(deg)": 264.9989248058542,
        "Satellite Name": "Constellation 1 1183",
        "Satellite Number": 1183,
        "Semi-Major Axis(m)": 7083131.272910544,
        "Time(s)": 19
    },
    {
        "Altitude(m)": 717567.6100978499,
        "Argument of Periapsis(deg)": 0.0011989601249081123,
        "Eccentricity": 0.0,
        "Inclination(deg)": 45.0,
        "Latitude(deg)": -44.393036520979194,
        "Longitude(deg)": 88.09383245202919,
        "Mean Anomaly(deg)": -80.6041771950021,
        "RAAN(deg)": 264.9988682166886,
        "Satellite Name": "Constellation 1 1183",
        "Satellite Number": 1183,
        "Semi-Major Axis(m)": 7083131.272910544,
        "Time(s)": 20
    },
    {
        "Altitude(m)": 717563.5659901106,
        "Argument of Periapsis(deg)": 0.001258908131153518,
        "Eccentricity": 0.0,
        "Inclination(deg)": 45.0,
        "Latitude(deg)": -44.38325044072656,
        "Longitude(deg)": 88.17313208383062,
        "Mean Anomaly(deg)": -80.54347605475213,
        "RAAN(deg)": 264.998811627523,
        "Satellite Name": "Constellation 1 1183",
        "Satellite Number": 1183,
        "Semi-Major Axis(m)": 7083131.272910544,
        "Time(s)": 21
    },
    {
        "Altitude(m)": 717559.4966488017,
        "Argument of Periapsis(deg)": 0.0013188561373989236,
        "Eccentricity": 0.0,
        "Inclination(deg)": 45.0,
        "Latitude(deg)": -44.373403477450324,
        "Longitude(deg)": 88.25240373855767,
        "Mean Anomaly(deg)": -80.4827749145022,
        "RAAN(deg)": 264.9987550383575,
        "Satellite Name": "Constellation 1 1183",
        "Satellite Number": 1183,
        "Semi-Major Axis(m)": 7083131.272910544,
        "Time(s)": 22
    },
    {
        "Altitude(m)": 717555.4020889079,
        "Argument of Periapsis(deg)": 0.0013788041436443293,
        "Eccentricity": 0.0,
        "Inclination(deg)": 45.0,
        "Latitude(deg)": -44.36349567194283,
        "Longitude(deg)": 88.33164759901551,
        "Mean Anomaly(deg)": -80.42207377425224,
        "RAAN(deg)": 264.9986984491919,
        "Satellite Name": "Constellation 1 1183",
        "Satellite Number": 1183,
        "Semi-Major Axis(m)": 7083131.272910544,
        "Time(s)": 23
    },
    {
        "Altitude(m)": 717551.2823255142,
        "Argument of Periapsis(deg)": 0.001438752149889735,
        "Eccentricity": 0.0,
        "Inclination(deg)": 45.0,
        "Latitude(deg)": -44.35352706521395,
        "Longitude(deg)": 88.41086334417103,
        "Mean Anomaly(deg)": -80.36137263400245,
        "RAAN(deg)": 264.9986418600263,
        "Satellite Name": "Constellation 1 1183",
        "Satellite Number": 1183,
        "Semi-Major Axis(m)": 7083131.272910544,
        "Time(s)": 24
    },
    {
        "Altitude(m)": 717547.137373787,
        "Argument of Periapsis(deg)": 0.0014987001561351404,
        "Eccentricity": 0.0,
        "Inclination(deg)": 45.0,
        "Latitude(deg)": -44.343497698480334,
        "Longitude(deg)": 88.49005082162267,
        "Mean Anomaly(deg)": -80.30067149375249,
        "RAAN(deg)": 264.99858527086076,
        "Satellite Name": "Constellation 1 1183",
        "Satellite Number": 1183,
        "Semi-Major Axis(m)": 7083131.272910544,
        "Time(s)": 25
    },
    {
        "Altitude(m)": 717542.9672490043,
        "Argument of Periapsis(deg)": 0.001558648162380546,
        "Eccentricity": 0.0,
        "Inclination(deg)": 45.0,
        "Latitude(deg)": -44.333407613203164,
        "Longitude(deg)": 88.56920987918537,
        "Mean Anomaly(deg)": -80.23997035350266,
        "RAAN(deg)": 264.9985286816952,
        "Satellite Name": "Constellation 1 1183",
        "Satellite Number": 1183,
        "Semi-Major Axis(m)": 7083131.272910544,
        "Time(s)": 26
    },
    {
        "Altitude(m)": 717538.7719665222,
        "Argument of Periapsis(deg)": 0.0016185961686259519,
        "Eccentricity": 0.0,
        "Inclination(deg)": 45.0,
        "Latitude(deg)": -44.32325685103011,
        "Longitude(deg)": 88.64834036536953,
        "Mean Anomaly(deg)": -80.1792692132527,
        "RAAN(deg)": 264.99847209252965,
        "Satellite Name": "Constellation 1 1183",
        "Satellite Number": 1183,
        "Semi-Major Axis(m)": 7083131.272910544,
        "Time(s)": 27
    },
    {
        "Altitude(m)": 717534.5515417893,
        "Argument of Periapsis(deg)": 0.0016785441748713573,
        "Eccentricity": 0.0,
        "Inclination(deg)": 45.0,
        "Latitude(deg)": -44.31304545383249,
        "Longitude(deg)": 88.72744212906616,
        "Mean Anomaly(deg)": -80.11856807300283,
        "RAAN(deg)": 264.9984155033641,
        "Satellite Name": "Constellation 1 1183",
        "Satellite Number": 1183,
        "Semi-Major Axis(m)": 7083131.272910544,
        "Time(s)": 28
    },
    {
        "Altitude(m)": 717530.3059903475,
        "Argument of Periapsis(deg)": 0.001738492181116763,
        "Eccentricity": 0.0,
        "Inclination(deg)": 45.0,
        "Latitude(deg)": -44.302773463694955,
        "Longitude(deg)": 88.80651501962816,
        "Mean Anomaly(deg)": -80.0578669327529,
        "RAAN(deg)": 264.99835891419855,
        "Satellite Name": "Constellation 1 1183",
        "Satellite Number": 1183,
        "Semi-Major Axis(m)": 7083131.272910544,
        "Time(s)": 29
    },
    {
        "Altitude(m)": 717526.035327843,
        "Argument of Periapsis(deg)": 0.0017984401873621684,
        "Eccentricity": 0.0,
        "Inclination(deg)": 45.0,
        "Latitude(deg)": -44.292440922914984,
        "Longitude(deg)": 88.88555871877419,
        "Mean Anomaly(deg)": -79.99716579250308,
        "RAAN(deg)": 264.9983023250329,
        "Satellite Name": "Constellation 1 1183",
        "Satellite Number": 1183,
        "Semi-Major Axis(m)": 7083131.272910544,
        "Time(s)": 30
    },
    {
        "Altitude(m)": 717521.739569997,
        "Argument of Periapsis(deg)": 0.0018583881936075745,
        "Eccentricity": 0.0,
        "Inclination(deg)": 45.0,
        "Latitude(deg)": -44.28204787400156,
        "Longitude(deg)": 88.96457341297915,
        "Mean Anomaly(deg)": -79.93646465225314,
        "RAAN(deg)": 264.99824573586733,
        "Satellite Name": "Constellation 1 1183",
        "Satellite Number": 1183,
        "Semi-Major Axis(m)": 7083131.272910544,
        "Time(s)": 31
    },
    {
        "Altitude(m)": 717517.4187326309,
        "Argument of Periapsis(deg)": 0.0019183361998529795,
        "Eccentricity": 0.0,
        "Inclination(deg)": 45.0,
        "Latitude(deg)": -44.271594359675056,
        "Longitude(deg)": 89.04355878489363,
        "Mean Anomaly(deg)": -79.87576351200318,
        "RAAN(deg)": 264.9981891467018,
        "Satellite Name": "Constellation 1 1183",
        "Satellite Number": 1183,
        "Semi-Major Axis(m)": 7083131.272910544,
        "Time(s)": 32
    },
    {
        "Altitude(m)": 717513.0728316581,
        "Argument of Periapsis(deg)": 0.0019782842060983856,
        "Eccentricity": 0.0,
        "Inclination(deg)": 45.0,
        "Latitude(deg)": -44.261080422865994,
        "Longitude(deg)": 89.12251468573365,
        "Mean Anomaly(deg)": -79.81506237175334,
        "RAAN(deg)": 264.9981325575362,
        "Satellite Name": "Constellation 1 1183",
        "Satellite Number": 1183,
        "Semi-Major Axis(m)": 7083131.272910544,
        "Time(s)": 33
    },
    {
        "Altitude(m)": 717508.701883083,
        "Argument of Periapsis(deg)": 0.0020382322123437906,
        "Eccentricity": 0.0,
        "Inclination(deg)": 45.0,
        "Latitude(deg)": -44.25050610671425,
        "Longitude(deg)": 89.20144096718566,
        "Mean Anomaly(deg)": -79.75436123150348,
        "RAAN(deg)": 264.9980759683707,
        "Satellite Name": "Constellation 1 1183",
        "Satellite Number": 1183,
        "Semi-Major Axis(m)": 7083131.272910544,
        "Time(s)": 34
    },
    {
        "Altitude(m)": 717504.3059030053,
        "Argument of Periapsis(deg)": 0.002098180218589197,
        "Eccentricity": 0.0,
        "Inclination(deg)": 45.0,
        "Latitude(deg)": -44.23987145456843,
        "Longitude(deg)": 89.28033748140808,
        "Mean Anomaly(deg)": -79.6936600912535,
        "RAAN(deg)": 264.99801937920506,
        "Satellite Name": "Constellation 1 1183",
        "Satellite Number": 1183,
        "Semi-Major Axis(m)": 7083131.272910544,
        "Time(s)": 35
    },
    {
        "Altitude(m)": 717499.8849076104,
        "Argument of Periapsis(deg)": 0.002158128224834602,
        "Eccentricity": 0.0,
        "Inclination(deg)": 45.0,
        "Latitude(deg)": -44.22917650998506,
        "Longitude(deg)": 89.35920408103254,
        "Mean Anomaly(deg)": -79.63295895100364,
        "RAAN(deg)": 264.9979627900395,
        "Satellite Name": "Constellation 1 1183",
        "Satellite Number": 1183,
        "Semi-Major Axis(m)": 7083131.272910544,
        "Time(s)": 36
    },
    {
        "Altitude(m)": 717495.4389131833,
        "Argument of Periapsis(deg)": 0.002218076231080008,
        "Eccentricity": 0.0,
        "Inclination(deg)": 45.0,
        "Latitude(deg)": -44.21842131672768,
        "Longitude(deg)": 89.43804045106975,
        "Mean Anomaly(deg)": -79.57225781075377,
        "RAAN(deg)": 264.99790620087396,
        "Satellite Name": "Constellation 1 1183",
        "Satellite Number": 1183,
        "Semi-Major Axis(m)": 7083131.272910544,
        "Time(s)": 37
    }
]